{
    "links": {
        "self": "http://www.neowsapp.com/rest/v1/neo/3696405?api_key=iIulBulltgU6a56xZRHN4H3l9WmuAYTsLGpBGhQ2"
    },
    "id": "3696405",
    "neo_reference_id": "3696405",
    "name": "(2014 WH6)",
    "designation": "2014 WH6",
    "nasa_jpl_url": "http://ssd.jpl.nasa.gov/sbdb.cgi?sstr=3696405",
    "absolute_magnitude_h": 24.8,
    "estimated_diameter": {
        "kilometers": {
            "estimated_diameter_min": 0.0291443905,
            "estimated_diameter_max": 0.0651688382
        },
        "meters": {
            "estimated_diameter_min": 29.1443904535,
            "estimated_diameter_max": 65.1688382168
        },
        "miles": {
            "estimated_diameter_min": 0.018109479,
            "estimated_diameter_max": 0.0404940262
        },
        "feet": {
            "estimated_diameter_min": 95.6180819754,
            "estimated_diameter_max": 213.8085311752
        }
    },
    "is_potentially_hazardous_asteroid": false,
    "close_approach_data": [
        {
            "close_approach_date": "2014-11-23",
            "close_approach_date_full": "2014-Nov-23 17:04",
            "epoch_date_close_approach": 1416762240000,
            "relative_velocity": {
                "kilometers_per_second": "10.686059461",
                "kilometers_per_hour": "38469.8140596468",
                "miles_per_hour": "23903.64640834"
            },
            "miss_distance": {
                "astronomical": "0.0748700703",
                "lunar": "29.1244573467",
                "kilometers": "11200403.043630261",
                "miles": "6959607.7300131618"
            },
            "orbiting_body": "Earth"
        }
    ],
    "orbital_data": {
        "orbit_id": "7",
        "orbit_determination_date": "2017-04-06 08:37:27",
        "first_observation_date": "2014-11-17",
        "last_observation_date": "2014-11-22",
        "data_arc_in_days": 5,
        "observations_used": 31,
        "orbit_uncertainty": "8",
        "minimum_orbit_intersection": ".0744125",
        "jupiter_tisserand_invariant": "3.026",
        "epoch_osculation": "2456980.5",
        "eccentricity": ".6141381376593806",
        "semi_major_axis": "2.707751191226871",
        "inclination": "14.00428413250418",
        "ascending_node_longitude": "54.48609445816884",
        "orbital_period": "1627.464635552791",
        "perihelion_distance": "1.044817917401831",
        "perihelion_argument": "20.38347226666877",
        "aphelion_distance": "4.370684465051911",
        "perihelion_time": "2456997.206530216100",
        "mean_anomaly": "356.3044660102533",
        "mean_motion": ".2212029632691348",
        "equinox": "J2000",
        "orbit_class": {
            "orbit_class_type": "AMO",
            "orbit_class_description": "Near-Earth asteroid orbits similar to that of 1221 Amor",
            "orbit_class_range": "1.017 AU < q (perihelion) < 1.3 AU"
        }
    },
    "is_sentry_object": false
}